UNKNOWN                 
1 85100U          26068.66842770  .00000476  00000+0  15680-3 0  9995
2 85100  74.0441  62.0647 0013903 268.6364 215.7096 14.40795788645864
UNKNOWN                 
1 85106U          26068.26840188  .00000759  00000+0  87414-3 0  9996
2 85106 100.0524 178.3831 0010845 151.0385 237.6955 13.73031550614945
UNKNOWN                 
1 85151U          26067.45172248  .00039543  00000+0  48354-2 0  9993
2 85151  98.3991 300.5434 0006470 230.0721 129.9923 14.83080407492210
UNKNOWN                 
1 85210U          26067.64728190  .00000359  00000+0  37858-3 0  9994
2 85210  99.8613 216.0055 0216769  94.9429 331.7966 13.71670730613933
UNKNOWN                 
1 85217U          26068.03970619  .00003986  00000+0  10494-2 0  9995
2 85217  98.0223 161.7978 0206434 227.1377 131.2313 14.37645313640254
UNKNOWN                 
1 85237U          26054.35491965  .00013478  00000+0  26977-2 0  9999
2 85237  65.5338  24.2147 0516167 354.4749   5.0755 14.01835433618525
UNKNOWN                 
1 85238U          26068.61334785  .00000081  00000+0  10210-3 0  9990
2 85238  99.0684   0.3390 0062884 326.6032 157.2792 13.88360892622897
UNKNOWN                 
1 85246U          26066.43321694  .00002923  00000+0  10435-2 0  9997
2 85246  97.9910  67.0040 0223680  54.3402 307.8378 14.21778105635105
UNKNOWN                 
1 85373U          26068.37184323  .00002586  00000+0  17619-2 0  9995
2 85373 100.4232 121.4625 0050207  11.4206  50.7620 14.00429944624255
UNKNOWN                 
1 87014U          26067.41221285  .00003408  00000+0  51883-2 0  9997
2 87014 100.4830  41.4529 0053897  30.2380 121.3559 13.52339017602492
UNKNOWN                 
1 87029U          26062.87882968  .00001484  00000+0  92545-3 0  9992
2 87029  98.7477 100.2460 0081356  23.6181 336.8689 14.04698837604392
UNKNOWN                 
1 87042U          26065.58029463  .00000733  00000+0  45797-3 0  9994
2 87042  98.7028 110.7446 0043131 216.9306 142.8892 14.07270112565756
